{
  "type": "FeatureCollection",
  "features": [
    {
      "type": "Feature",
      "properties": {
        "norad_id": 51444,
        "name": "CSG-2",
        "group": "resource",
        "lat": -4.998202958113276,
        "lon": 159.0637310050633,
        "alt_km": 626.3138012008776,
        "timestamp": "2025-12-02T21:34:00.930993+00:00",
        "meta_object_name": "CSG-2",
        "meta_object_id": "2022-008A",
        "meta_epoch": "2025-12-02T11:52:05.023776",
        "meta_mean_motion": 14.82146496,
        "meta_eccentricity": 0.0001483,
        "meta_inclination": 97.8805,
        "meta_ra_of_asc_node": 157.9718,
        "meta_arg_of_pericenter": 92.2445,
        "meta_mean_anomaly": 267.8938,
        "meta_ephemeris_type": 0,
        "meta_classification_type": "U",
        "meta_norad_cat_id": 51444,
        "meta_element_set_no": 999,
        "meta_rev_at_epoch": 20745,
        "meta_bstar": 9.0938e-05,
        "meta_mean_motion_dot": 6.72e-06,
        "meta_mean_motion_ddot": 0,
        "tle_line1": "1 51444U 22008A   25336.49450259  .00000672  00000+0  90938-4 0  9994",
        "tle_line2": "2 51444  97.8805 157.9718 0001483  92.2445 267.8938 14.82146496207453"
      },
      "geometry": {
        "type": "Point",
        "coordinates": [
          159.0637310050633,
          -4.998202958113276
        ]
      }
    },
    {
      "type": "Feature",
      "properties": {
        "norad_id": 52912,
        "name": "GAOFEN-12 03",
        "group": "resource",
        "lat": 2.2417371885631736,
        "lon": -135.8348450107074,
        "alt_km": 632.9406537446848,
        "timestamp": "2025-12-02T21:34:00.931003+00:00",
        "meta_object_name": "GAOFEN-12 03",
        "meta_object_id": "2022-069A",
        "meta_epoch": "2025-12-02T13:26:28.724352",
        "meta_mean_motion": 14.79568772,
        "meta_eccentricity": 0.0002329,
        "meta_inclination": 97.8486,
        "meta_ra_of_asc_node": 224.1439,
        "meta_arg_of_pericenter": 76.8983,
        "meta_mean_anomaly": 283.2489,
        "meta_ephemeris_type": 0,
        "meta_classification_type": "U",
        "meta_norad_cat_id": 52912,
        "meta_element_set_no": 999,
        "meta_rev_at_epoch": 18553,
        "meta_bstar": 0.00022398,
        "meta_mean_motion_dot": 1.626e-05,
        "meta_mean_motion_ddot": 0,
        "tle_line1": "1 52912U 22069A   25336.56005468  .00001626  00000+0  22398-3 0  9992",
        "tle_line2": "2 52912  97.8486 224.1439 0002329  76.8983 283.2489 14.79568772185539"
      },
      "geometry": {
        "type": "Point",
        "coordinates": [
          -135.8348450107074,
          2.2417371885631736
        ]
      }
    },
    {
      "type": "Feature",
      "properties": {
        "norad_id": 54754,
        "name": "SWOT",
        "group": "resource",
        "lat": -76.03073735622377,
        "lon": -177.6362671593788,
        "alt_km": 900.480506994275,
        "timestamp": "2025-12-02T21:34:00.931014+00:00",
        "meta_object_name": "SWOT",
        "meta_object_id": "2022-173A",
        "meta_epoch": "2025-12-02T11:44:16.080864",
        "meta_mean_motion": 14.00172235,
        "meta_eccentricity": 2.95e-05,
        "meta_inclination": 77.6099,
        "meta_ra_of_asc_node": 300.828,
        "meta_arg_of_pericenter": 140.726,
        "meta_mean_anomaly": 219.3913,
        "meta_ephemeris_type": 0,
        "meta_classification_type": "U",
        "meta_norad_cat_id": 54754,
        "meta_element_set_no": 999,
        "meta_rev_at_epoch": 15162,
        "meta_bstar": 4.4496e-05,
        "meta_mean_motion_dot": 6.3e-07,
        "meta_mean_motion_ddot": 0,
        "tle_line1": "1 54754U 22173A   25336.48907501  .00000063  00000+0  44496-4 0  9992",
        "tle_line2": "2 54754  77.6099 300.8280 0000295 140.7260 219.3913 14.00172235151620"
      },
      "geometry": {
        "type": "Point",
        "coordinates": [
          -177.6362671593788,
          -76.03073735622377
        ]
      }
    },
    {
      "type": "Feature",
      "properties": {
        "norad_id": 57654,
        "name": "GAOFEN-12 04",
        "group": "resource",
        "lat": 10.872257113490083,
        "lon": 74.3360987177313,
        "alt_km": 632.0784619010501,
        "timestamp": "2025-12-02T21:34:00.931024+00:00",
        "meta_object_name": "GAOFEN-12 04",
        "meta_object_id": "2023-123A",
        "meta_epoch": "2025-12-02T12:41:28.251744",
        "meta_mean_motion": 14.79650002,
        "meta_eccentricity": 0.0001477,
        "meta_inclination": 97.9112,
        "meta_ra_of_asc_node": 252.4416,
        "meta_arg_of_pericenter": 71.4285,
        "meta_mean_anomaly": 288.7087,
        "meta_ephemeris_type": 0,
        "meta_classification_type": "U",
        "meta_norad_cat_id": 57654,
        "meta_element_set_no": 999,
        "meta_rev_at_epoch": 12354,
        "meta_bstar": 0.00026919,
        "meta_mean_motion_dot": 1.968e-05,
        "meta_mean_motion_ddot": 0,
        "tle_line1": "1 57654U 23123A   25336.52879921  .00001968  00000+0  26919-3 0  9993",
        "tle_line2": "2 57654  97.9112 252.4416 0001477  71.4285 288.7087 14.79650002123547"
      },
      "geometry": {
        "type": "Point",
        "coordinates": [
          74.3360987177313,
          10.872257113490083
        ]
      }
    },
    {
      "type": "Feature",
      "properties": {
        "norad_id": 59065,
        "name": "PARS 1",
        "group": "resource",
        "lat": -23.37865043926692,
        "lon": 124.37853941119155,
        "alt_km": 451.68358832291597,
        "timestamp": "2025-12-02T21:34:00.931034+00:00",
        "meta_object_name": "PARS 1",
        "meta_object_id": "2024-039Q",
        "meta_epoch": "2025-12-02T12:53:36.825792",
        "meta_mean_motion": 15.40624321,
        "meta_eccentricity": 0.0012647,
        "meta_inclination": 97.4617,
        "meta_ra_of_asc_node": 307.2578,
        "meta_arg_of_pericenter": 102.1843,
        "meta_mean_anomaly": 258.0821,
        "meta_ephemeris_type": 0,
        "meta_classification_type": "U",
        "meta_norad_cat_id": 59065,
        "meta_element_set_no": 999,
        "meta_rev_at_epoch": 9831,
        "meta_bstar": 0.00035205,
        "meta_mean_motion_dot": 0.00014299,
        "meta_mean_motion_ddot": 0,
        "tle_line1": "1 59065U 24039Q   25336.53723178  .00014299  00000+0  35205-3 0  9990",
        "tle_line2": "2 59065  97.4617 307.2578 0012647 102.1843 258.0821 15.40624321 98317"
      },
      "geometry": {
        "type": "Point",
        "coordinates": [
          124.37853941119155,
          -23.37865043926692
        ]
      }
    },
    {
      "type": "Feature",
      "properties": {
        "norad_id": 59371,
        "name": "RESURS-P 4",
        "group": "resource",
        "lat": -62.908803547096795,
        "lon": -62.1520565794385,
        "alt_km": 477.9054046033707,
        "timestamp": "2025-12-02T21:34:00.931044+00:00",
        "meta_object_name": "RESURS-P 4",
        "meta_object_id": "2024-061A",
        "meta_epoch": "2025-12-02T12:26:21.550272",
        "meta_mean_motion": 15.31957353,
        "meta_eccentricity": 0.0002231,
        "meta_inclination": 97.2525,
        "meta_ra_of_asc_node": 283.0597,
        "meta_arg_of_pericenter": 55.5721,
        "meta_mean_anomaly": 304.5732,
        "meta_ephemeris_type": 0,
        "meta_classification_type": "U",
        "meta_norad_cat_id": 59371,
        "meta_element_set_no": 999,
        "meta_rev_at_epoch": 9364,
        "meta_bstar": 0.00020033,
        "meta_mean_motion_dot": 6.105e-05,
        "meta_mean_motion_ddot": 0,
        "tle_line1": "1 59371U 24061A   25336.51830498  .00006105  00000+0  20033-3 0  9997",
        "tle_line2": "2 59371  97.2525 283.0597 0002231  55.5721 304.5732 15.31957353 93642"
      },
      "geometry": {
        "type": "Point",
        "coordinates": [
          -62.1520565794385,
          -62.908803547096795
        ]
      }
    },
    {
      "type": "Feature",
      "properties": {
        "norad_id": 59625,
        "name": "LEGION 1",
        "group": "resource",
        "lat": -6.416795367849738,
        "lon": 52.47346251507612,
        "alt_km": 517.5579354238071,
        "timestamp": "2025-12-02T21:34:00.931054+00:00",
        "meta_object_name": "LEGION 1",
        "meta_object_id": "2024-081A",
        "meta_epoch": "2025-12-02T12:05:33.567936",
        "meta_mean_motion": 15.16315841,
        "meta_eccentricity": 0.0004775,
        "meta_inclination": 97.523,
        "meta_ra_of_asc_node": 51.2305,
        "meta_arg_of_pericenter": 357.3301,
        "meta_mean_anomaly": 2.7906,
        "meta_ephemeris_type": 0,
        "meta_classification_type": "U",
        "meta_norad_cat_id": 59625,
        "meta_element_set_no": 999,
        "meta_rev_at_epoch": 8772,
        "meta_bstar": 0.00034834,
        "meta_mean_motion_dot": 6.686e-05,
        "meta_mean_motion_ddot": 0,
        "tle_line1": "1 59625U 24081A   25336.50386074  .00006686  00000+0  34834-3 0  9994",
        "tle_line2": "2 59625  97.5230  51.2305 0004775 357.3301   2.7906 15.16315841 87729"
      },
      "geometry": {
        "type": "Point",
        "coordinates": [
          52.47346251507612,
          -6.416795367849738
        ]
      }
    }
  ]
}